{
    "links": {
        "self": "http://www.neowsapp.com/rest/v1/neo/3741567?api_key=iIulBulltgU6a56xZRHN4H3l9WmuAYTsLGpBGhQ2"
    },
    "id": "3741567",
    "neo_reference_id": "3741567",
    "name": "(2016 CT29)",
    "designation": "2016 CT29",
    "nasa_jpl_url": "http://ssd.jpl.nasa.gov/sbdb.cgi?sstr=3741567",
    "absolute_magnitude_h": 24.7,
    "estimated_diameter": {
        "kilometers": {
            "estimated_diameter_min": 0.0305179233,
            "estimated_diameter_max": 0.0682401509
        },
        "meters": {
            "estimated_diameter_min": 30.5179232594,
            "estimated_diameter_max": 68.2401509401
        },
        "miles": {
            "estimated_diameter_min": 0.0189629525,
            "estimated_diameter_max": 0.0424024508
        },
        "feet": {
            "estimated_diameter_min": 100.1244233463,
            "estimated_diameter_max": 223.8850168104
        }
    },
    "is_potentially_hazardous_asteroid": false,
    "close_approach_data": [
        {
            "close_approach_date": "2016-01-21",
            "close_approach_date_full": "2016-Jan-21 02:50",
            "epoch_date_close_approach": 1453344600000,
            "relative_velocity": {
                "kilometers_per_second": "12.6099234731",
                "kilometers_per_hour": "45395.7245031848",
                "miles_per_hour": "28207.1378169928"
            },
            "miss_distance": {
                "astronomical": "0.0384044505",
                "lunar": "14.9393312445",
                "kilometers": "5745223.993320435",
                "miles": "3569916.650214603"
            },
            "orbiting_body": "Earth"
        }
    ],
    "orbital_data": {
        "orbit_id": "4",
        "orbit_determination_date": "2019-07-16 06:15:11",
        "first_observation_date": "2016-02-04",
        "last_observation_date": "2016-02-05",
        "data_arc_in_days": 1,
        "observations_used": 28,
        "orbit_uncertainty": "8",
        "minimum_orbit_intersection": ".0241211",
        "jupiter_tisserand_invariant": "3.724",
        "epoch_osculation": "2457422.5",
        "eccentricity": ".5345768371849601",
        "semi_major_axis": "1.920331005290866",
        "inclination": "9.016408588489158",
        "ascending_node_longitude": "124.7951455128945",
        "orbital_period": "971.9917256274622",
        "perihelion_distance": ".8937665301342598",
        "perihelion_argument": "307.1473321803656",
        "aphelion_distance": "2.946895480447471",
        "perihelion_time": "2457373.717985584717",
        "mean_anomaly": "18.06756655069791",
        "mean_motion": ".3703735232597835",
        "equinox": "J2000",
        "orbit_class": {
            "orbit_class_type": "APO",
            "orbit_class_description": "Near-Earth asteroid orbits which cross the Earth’s orbit similar to that of 1862 Apollo",
            "orbit_class_range": "a (semi-major axis) > 1.0 AU; q (perihelion) < 1.017 AU"
        }
    },
    "is_sentry_object": false
}